GPS BIIA-23 (PRN 18)    
1 22877U 93068A   18167.31723218 -.00000037  00000-0  00000+0 0  9992
2 22877  54.4254  83.5402 0144445  75.0049  55.8368  2.00566215180530
GPS BIIR-2  (PRN 13)    
1 24876U 97035A   18167.02977753  .00000052  00000-0  00000+0 0  9990
2 24876  55.4881 212.8128 0030951  89.3648 271.0731  2.00564892153129
GPS BIIR-3  (PRN 11)    
1 25933U 99055A   18167.38118953 -.00000064  00000-0  00000+0 0  9991
2 25933  51.8870  61.7252 0166995 101.6152  77.9608  2.00567063136958
GPS BIIR-4  (PRN 20)    
1 26360U 00025A   18167.41398396  .00000035  00000-0  00000+0 0  9997
2 26360  53.2025 139.6993 0040868 113.9425 139.6907  2.00425882132638
GPS BIIR-5  (PRN 28)    
1 26407U 00040A   18167.48581727 -.00000058  00000-0  00000+0 0  9991
2 26407  56.4816 330.9220 0196704 272.8884   8.6050  2.00563015131327
GPS BIIR-6  (PRN 14)    
1 26605U 00071A   18167.36362260  .00000049  00000-0  00000+0 0  9990
2 26605  55.0613 210.3915 0101807 248.7741 208.7348  2.00572574128917
GPS BIIR-8  (PRN 16)    
1 27663U 03005A   18166.95829431 -.00000057  00000-0  00000+0 0  9997
2 27663  56.5463 330.7002 0099072  28.6423 351.6275  2.00566951112672
GPS BIIR-9  (PRN 21)    
1 27704U 03010A   18167.33690549 -.00000038  00000-0  00000+0 0  9997
2 27704  54.0959  83.1258 0246218 271.1727 341.8397  2.00561536111489
GPS BIIR-10 (PRN 22)    
1 28129U 03058A   18167.22134648  .00000037  00000-0  00000+0 0  9990
2 28129  53.0156 142.5622 0075774 272.5175  86.5830  2.00549482106174
GPS BIIR-11 (PRN 19)    
1 28190U 04009A   18167.21584356 -.00000071  00000-0  00000+0 0  9998
2 28190  56.1714  31.5404 0096685  68.6347 285.2108  2.00558872104357
GPS BIIR-12 (PRN 23)    
1 28361U 04023A   18167.44142410  .00000050  00000-0  00000+0 0  9996
2 28361  54.0618 205.1293 0127453 225.8842 208.1164  2.00550472102449
GPS BIIR-13 (PRN 02)    
1 28474U 04045A   18167.27425862 -.00000038  00000-0  00000+0 0  9998
2 28474  54.4645  82.7416 0181273 254.1899  58.4762  2.00553724 99809
GPS BIIRM-1 (PRN 17)    
1 28874U 05038A   18167.44837637 -.00000073  00000-0  00000+0 0  9990
2 28874  56.3128  28.8412 0125715 258.4199 285.0225  2.00575760 93200
GPS BIIRM-2 (PRN 31)    
1 29486U 06042A   18167.36986413 -.00000010  00000-0  00000+0 0  9995
2 29486  55.1793 267.7021 0087749 351.2330  60.9282  2.00563020 85927
GPS BIIRM-3 (PRN 12)    
1 29601U 06052A   18167.24165590 -.00000057  00000-0  00000+0 0  9998
2 29601  56.5219 329.6061 0069903  55.8850 304.7683  2.00575482 84830
GPS BIIRM-4 (PRN 15)    
1 32260U 07047A   18166.56422568  .00000060  00000-0  00000+0 0  9996
2 32260  53.1864 201.1883 0101459  37.9553 322.8293  2.00553249 78203
GPS BIIRM-5 (PRN 29)    
1 32384U 07062A   18167.34506966 -.00000072  00000-0  00000+0 0  9996
2 32384  56.3867  29.4543 0005961  64.3944 274.3171  2.00563266 76946
GPS BIIRM-6 (PRN 07)    
1 32711U 08012A   18166.97357127 -.00000007  00000-0  00000+0 0  9995
2 32711  54.9133 266.9971 0118892 216.3057 142.9274  2.00565192 75128
GPS BIIRM-8 (PRN 05)    
1 35752U 09043A   18167.27919088  .00000042  00000-0  00000+0 0  9990
2 35752  54.3213 144.7482 0052848  33.3391 217.3444  2.00557377 64710
GPS BIIF-1  (PRN 25)    
1 36585U 10022A   18167.35979826 -.00000057  00000-0  00000+0 0  9996
2 36585  55.8128 326.1639 0073145  48.4692   3.1628  2.00568474 58965
GPS BIIF-2  (PRN 01)    
1 37753U 11036A   18167.35174483 -.00000031  00000-0  00000+0 0  9998
2 37753  55.6641  86.2642 0077526  35.4393  97.0396  2.00564181 50642
GPS BIIF-3  (PRN 24)    
1 38833U 12053A   18167.15436048 -.00000006  00000-0  00000+0 0  9996
2 38833  53.9431 263.5480 0068398  29.4596 330.9736  2.00566673 41718
GPS BIIF-4  (PRN 27)    
1 39166U 13023A   18167.01205504 -.00000071  00000-0  00000+0 0  9992
2 39166  56.0100  25.7549 0058916  22.9040 337.4133  2.00562527 37246
GPS BIIF-5  (PRN 30)    
1 39533U 14008A   18167.01161093 -.00000010  00000-0  00000+0 0  9991
2 39533  54.0879 268.9035 0035191 188.4636 171.5180  2.00556981 31605
GPS BIIF-6  (PRN 06)    
1 39741U 14026A   18167.29038275 -.00000032  00000-0  00000+0 0  9991
2 39741  55.6475  85.7895 0013336 294.7374  65.1299  2.00567079 29898
GPS BIIF-7  (PRN 09)    
1 40105U 14045A   18167.38254033  .00000051  00000-0  00000+0 0  9990
2 40105  54.5876 205.2359 0006870 112.1446 248.0012  2.00571375 28347
GPS BIIF-8  (PRN 03)    
1 40294U 14068A   18167.25419107  .00000045  00000-0  00000+0 0  9998
2 40294  55.0723 146.0153 0013674  16.7068 343.3092  2.00555735 26567
GPS BIIF-9  (PRN 26)    
1 40534U 15013A   18166.89089824 -.00000058  00000-0  00000+0 0  9999
2 40534  54.7543 324.9050 0027678   2.5034 357.4993  2.00563611 23620
GPS BIIF-10  (PRN 08)   
1 40730U 15033A   18167.05511330 -.00000073  00000-0  00000+0 0  9997
2 40730  55.5403  25.2597 0035677 332.7767  27.0903  2.00574576 21382
GPS BIIF-11  (PRN 10)   
1 41019U 15062A   18166.60571322  .00000044  00000-0  00000-0 0  9995
2 41019  55.0772 145.8438 0036717 206.0561 153.7312  2.00564301 19193
GPS BIIF-12  (PRN 32)   
1 41328U 16007A   18167.19191264  .00000054  00000-0  00000+0 0  9996
2 41328  54.8382 205.5334 0023416 219.0738 140.8313  2.00563216 17269
